ELECTRON KICK STAGE R/B 
1 67223U 25305E   25357.29083347  .00018707  00000+0  18366-3 0  9992
2 67223  44.9877 292.9264 0177490 166.6089 193.9601 15.48545747   794
ELECTRON R/B            
1 67224U 25305F   25352.76890193  .00172783  86369-5  22935-3 0  9995
2 67224  45.0188 318.3021 0262888 280.1207  77.0133 15.64663678    93
TJS-23                  
1 67226U 25306A   25365.06480098  .00000040  00000+0  00000+0 0  9997
2 67226   5.9705 298.3666 0001189 280.4575  79.7143  1.00275521   207
CZ-5 R/B                
1 67227U 25306B   25365.68607293  .00003467  00000+0  77956-3 0  9998
2 67227  16.3704 295.3600 7584331 185.5665 154.1809  1.92297574   238
QPS-SAR-15              
1 67228U 25307A   25365.57231223  .00009294  00000+0  80458-3 0  9999
2 67228  42.0073  67.2084 0009519 330.0101  30.0177 14.97186640  1546
ELECTRON KICK STAGE R/B 
1 67229U 25307B   25365.36478411  .00671960  13822-3  18992-2 0  9997
2 67229  42.0010  62.9543 0219103 308.7413  49.4033 15.63279516  1577
ELECTRON R/B            
1 67230U 25307C   25355.36249005  .00071881  81069-5  20248-3 0  9997
2 67230  41.9820 123.1026 0261408 268.1410  88.9482 15.55087105    19
SPACEMOBILE-006         
1 67232U 25309A   25360.75210442  .00001165  00000+0  72651-4 0  9997
2 67232  53.0002  40.8851 0010477 329.2446  30.7932 15.17699903   405
LVM3 R/B                
1 67233U 25309B   25360.74928094  .00001231  00000+0  72627-4 0  9993
2 67233  52.9350  40.7629 0010474 355.6984   4.3917 15.19340101   404
2025-310A               
1 67234U 25310A   25363.31529613  .00002994  00000+0  13914-3 0  9996
2 67234  97.9657   8.0673 0151612  68.9370 292.7996 15.11153747   571
SL-4 R/B                
1 67235U 25310B   25364.94554285  .00131108  22082-5  30581-3 0  9999
2 67235  97.9679  10.0184 0299672  57.0996 305.8706 15.50179935   832
FENGYUN 4C              
1 67246U 25312A   25360.90857406  .00039214  41525-6  21251-2 0  9998
2 67246  28.4641 334.3215 7309751 179.7824 181.1675  2.27841578    17
